NORAD_CAT_ID,OBJECT_NAME,OBJECT_TYPE,EPOCH,MEAN_MOTION,ECCENTRICITY,INCLINATION,RA_OF_ASC_NODE,ARG_OF_PERICENTER,MEAN_ANOMALY,BSTAR,MEAN_MOTION_DOT,MEAN_MOTION_DDOT,TLE_LINE0,TLE_LINE1,TLE_LINE2,SEMIMAJOR_AXIS,PERIOD,APOGEE,PERIGEE,DECAYED
52363.0,STARLINK-3830,PAYLOAD,2023-03-25 02:13:15,15.08878101,9.95e-05,53.2165,10.1078,97.2841,262.8264,0.0019985,0.00031695,0.0,0 STARLINK-3830,1 52363U 22045AJ  23084.09254171  .00031695  00000-0  19985-2 0  9996,2 52363  53.2165  10.1078 0000995  97.2841 262.8264 15.08878101 52651,6917.764,95.435,540.317,538.941,0.0
52363.0,STARLINK-3830,PAYLOAD,2023-03-26 03:39:27,15.08811308,0.0001075,53.2161,5.3485,116.1575,243.9528,0.0013533,0.00021298,0.0,0 STARLINK-3830,1 52363U 22045AJ  23085.15240023  .00021298  00000-0  13533-2 0  9996,2 52363  53.2161   5.3485 0001075 116.1575 243.9528 15.08811308 52817,6917.968,95.439,540.577,539.089,0.0
52363.0,STARLINK-3830,PAYLOAD,2023-03-26 22:44:05,15.08843764,0.0001038,53.2159,1.7825,123.85,236.2591,0.001337,0.00021057,0.0,0 STARLINK-3830,1 52363U 22045AJ  23085.94728577  .00021057  00000-0  13370-2 0  9990,2 52363  53.2159   1.7825 0001038 123.8500 236.2591 15.08843764 52933,6917.869,95.437,540.452,539.016,0.0
52363.0,STARLINK-3830,PAYLOAD,2023-03-27 03:30:14,15.08860912,0.0001058,53.2156,0.8893,98.9255,261.1857,0.0017102,0.0002705,0.0,0 STARLINK-3830,1 52363U 22045AJ  23086.14600384  .00027050  00000-0  17102-2 0  9994,2 52363  53.2156   0.8893 0001058  98.9255 261.1857 15.08860912 52965,6917.816,95.436,540.413,538.95,0.0
52363.0,STARLINK-3830,PAYLOAD,2023-03-28 03:21:00,15.08876313,0.0001183,53.216,356.4266,91.1328,268.98,0.0011891,0.00018706,0.0,0 STARLINK-3830,1 52363U 22045AJ  23087.13959419  .00018706  00000-0  11891-2 0  9997,2 52363  53.2160 356.4266 0001183  91.1328 268.9800 15.08876313 53112,6917.769,95.435,540.453,538.816,0.0
52363.0,STARLINK-3830,PAYLOAD,2023-03-29 00:01:01,15.08853859,0.0001105,53.2164,352.5616,96.6974,263.4144,0.0010969,0.00017219,0.0,0 STARLINK-3830,1 52363U 22045AJ  23088.00071645  .00017219  00000-0  10969-2 0  9993,2 52363  53.2164 352.5616 0001105  96.6974 263.4144 15.08853859 53248,6917.838,95.437,540.467,538.939,0.0
52363.0,STARLINK-3830,PAYLOAD,2023-03-29 20:41:02,15.08843102,0.0001374,53.2167,348.6962,117.7926,242.3206,0.0011904,0.0001871,0.0,0 STARLINK-3830,1 52363U 22045AJ  23088.86183971  .00018710  00000-0  11904-2 0  9990,2 52363  53.2167 348.6962 0001374 117.7926 242.3206 15.08843102 53370,6917.871,95.437,540.686,538.785,0.0
52363.0,STARLINK-3830,PAYLOAD,2023-03-29 23:51:49,15.08848325,0.000103,53.2157,348.1022,73.6975,286.413,0.0010118,0.00015855,0.0,0 STARLINK-3830,1 52363U 22045AJ  23088.99432034  .00015855  00000-0  10118-2 0  9994,2 52363  53.2157 348.1022 0001030  73.6975 286.4130 15.08848325 53393,6917.855,95.437,540.432,539.007,0.0
52363.0,STARLINK-3830,PAYLOAD,2023-03-31 02:53:22,15.08861926,0.000136,53.2171,343.0449,79.0751,281.0394,0.0011155,0.0001752,0.0,0 STARLINK-3830,1 52363U 22045AJ  23090.12039962  .00017520  00000-0  11155-2 0  9998,2 52363  53.2171 343.0449 0001360  79.0751 281.0394 15.08861926 53568,6917.813,95.436,540.619,538.738,0.0
52363.0,STARLINK-3830,PAYLOAD,2023-03-31 20:22:37,15.08836405,0.0001314,53.2163,339.7769,72.9213,287.1923,0.00067057,0.00010399,0.0,0 STARLINK-3830,1 52363U 22045AJ  23090.84904610  .00010399  00000-0  67057-3 0  9998,2 52363  53.2163 339.7769 0001314  72.9213 287.1923 15.08836405 53671,6917.891,95.438,540.665,538.847,0.0
52363.0,STARLINK-3830,PAYLOAD,2023-04-01 02:44:09,15.08853964,0.0001377,53.2161,338.5873,71.1767,288.9374,0.0015036,0.00023732,0.0,0 STARLINK-3830,1 52363U 22045AJ  23091.11400444  .00023732  00000-0  15036-2 0  9999,2 52363  53.2161 338.5873 0001377  71.1767 288.9374 15.08853964 53719,6917.838,95.437,540.655,538.75,0.0
52363.0,STARLINK-3830,PAYLOAD,2023-04-01 17:02:38,15.08829906,0.0001347,53.2162,335.9088,85.0043,275.1103,0.00066688,0.00010338,0.0,0 STARLINK-3830,1 52363U 22045AJ  23091.71017356  .00010338  00000-0  66688-3 0  9999,2 52363  53.2162 335.9088 0001347  85.0043 275.1103 15.08829906 53804,6917.911,95.438,540.708,538.844,0.0
52363.0,STARLINK-3830,PAYLOAD,2023-04-01 20:13:25,15.08832416,0.0001273,53.2164,335.315,85.5436,274.5701,0.00092498,0.00014461,0.0,0 STARLINK-3830,1 52363U 22045AJ  23091.84265421  .00014461  00000-0  92498-3 0  9990,2 52363  53.2164 335.3150 0001273  85.5436 274.5701 15.08832416 53828,6917.904,95.438,540.649,538.888,0.0
52363.0,STARLINK-3830,PAYLOAD,2023-04-01 23:24:11,15.08837892,0.0001263,53.2163,334.7207,87.2751,272.8385,0.0010722,0.00016816,0.0,0 STARLINK-3830,1 52363U 22045AJ  23091.97513476  .00016816  00000-0  10722-2 0  9995,2 52363  53.2163 334.7207 0001263  87.2751 272.8385 15.08837892 53845,6917.887,95.438,540.626,538.878,0.0
52363.0,STARLINK-3830,PAYLOAD,2023-04-02 20:04:12,15.08851677,0.0001017,53.2155,330.8556,84.7459,275.3649,0.00078756,0.00012272,0.0,0 STARLINK-3830,1 52363U 22045AJ  23092.83625330  .00012272  00000-0  78756-3 0  9998,2 52363  53.2155 330.8556 0001017  84.7459 275.3649 15.08851677 53976,6917.845,95.437,540.413,539.006,0.0
52363.0,STARLINK-3830,PAYLOAD,2023-04-02 21:39:35,15.08851726,0.0001209,53.2159,330.559,96.2041,263.9089,0.00069739,0.00010832,0.0,0 STARLINK-3830,1 52363U 22045AJ  23092.90249266  .00010832  00000-0  69739-3 0  9997,2 52363  53.2159 330.5590 0001209  96.2041 263.9089 15.08851726 53980,6917.845,95.437,540.546,538.873,0.0
52363.0,STARLINK-3830,PAYLOAD,2023-04-03 00:50:21,15.08859094,0.0001093,53.2154,329.9638,89.5821,270.5296,0.00087825,0.00013724,0.0,0 STARLINK-3830,1 52363U 22045AJ  23093.03497068  .00013724  00000-0  87825-3 0  9996,2 52363  53.2154 329.9638 0001093  89.5821 270.5296 15.08859094 54006,6917.822,95.436,540.443,538.931,0.0
52363.0,STARLINK-3830,PAYLOAD,2023-04-03 21:30:22,15.08850093,0.0001024,53.2146,326.0978,95.9292,264.1817,0.00051866,7.979e-05,0.0,0 STARLINK-3830,1 52363U 22045AJ  23093.89609160  .00007979  00000-0  51866-3 0  9999,2 52363  53.2146 326.0978 0001024  95.9292 264.1817 15.08850093 54131,6917.85,95.437,540.423,539.006,0.0
52363.0,STARLINK-3830,PAYLOAD,2023-04-03 23:05:45,15.08850814,0.0001092,53.215,325.8007,94.5307,265.581,0.00056463,8.712e-05,0.0,0 STARLINK-3830,1 52363U 22045AJ  23093.96233157  .00008712  00000-0  56463-3 0  9990,2 52363  53.2150 325.8007 0001092  94.5307 265.5810 15.08850814 54143,6917.847,95.437,540.468,538.957,0.0
52363.0,STARLINK-3830,PAYLOAD,2023-04-04 21:21:09,15.08845594,0.0001288,53.2149,321.6367,141.3731,218.7354,0.00064368,9.973e-05,0.0,0 STARLINK-3830,1 52363U 22045AJ  23094.88969118  .00009973  00000-0  64368-3 0  9998,2 52363  53.2149 321.6367 0001288 141.3731 218.7354 15.08845594 54280,6917.863,95.437,540.619,538.837,0.0
52363.0,STARLINK-3830,PAYLOAD,2023-04-05 08:28:51,15.08842164,0.0001035,53.2157,319.5537,95.7741,264.3369,0.00019551,2.825e-05,0.0,0 STARLINK-3830,1 52363U 22045AJ  23095.35337331  .00002825  00000-0  19551-3 0  9990,2 52363  53.2157 319.5537 0001035  95.7741 264.3369 15.08842164 54358,6917.874,95.437,540.455,539.023,0.0
52363.0,STARLINK-3830,PAYLOAD,2023-04-05 21:11:56,15.08843206,0.0001183,53.2161,317.1747,93.0184,267.0944,0.00017812,2.548e-05,0.0,0 STARLINK-3830,1 52363U 22045AJ  23095.88329374  .00002548  00000-0  17812-3 0  9996,2 52363  53.2161 317.1747 0001183  93.0184 267.0944 15.08843206 54432,6917.871,95.437,540.554,538.917,0.0
52363.0,STARLINK-3830,PAYLOAD,2023-04-06 14:41:10,15.08848328,0.0001202,53.2159,313.9032,93.7541,266.3588,0.00021512,3.138e-05,0.0,0 STARLINK-3830,1 52363U 22045AJ  23096.61192920  .00003138  00000-0  21512-3 0  9991,2 52363  53.2159 313.9032 0001202  93.7541 266.3588 15.08848328 54544,6917.855,95.437,540.551,538.888,0.0
52363.0,STARLINK-3830,PAYLOAD,2023-04-06 21:02:42,15.08867222,7.92e-05,53.2158,312.7143,85.8784,274.2299,0.00045403,6.951e-05,0.0,0 STARLINK-3830,1 52363U 22045AJ  23096.87687736  .00006951  00000-0  45403-3 0  9994,2 52363  53.2158 312.7143 0000792  85.8784 274.2299 15.08867222 54582,6917.797,95.436,540.21,539.114,0.0
52363.0,STARLINK-3830,PAYLOAD,2023-04-07 12:56:34,15.08843045,0.000107,53.2153,309.7408,105.1096,255.0014,4.8048e-05,4.77e-06,0.0,0 STARLINK-3830,1 52363U 22045AJ  23097.53928501  .00000477  00000-0  48048-4 0  9992,2 52363  53.2153 309.7408 0001070 105.1096 255.0014 15.08843045 54689,6917.871,95.437,540.476,538.996,0.0
52363.0,STARLINK-3830,PAYLOAD,2023-04-07 14:31:57,15.08842729,0.0001064,53.2154,309.4431,108.828,251.2828,4.2042e-05,3.81e-06,0.0,0 STARLINK-3830,1 52363U 22045AJ  23097.60552502  .00000381  00000-0  42042-4 0  9996,2 52363  53.2154 309.4431 0001064 108.8280 251.2828 15.08842729 54691,6917.872,95.437,540.473,539.001,0.0
52363.0,STARLINK-3830,PAYLOAD,2023-04-08 00:04:16,15.08835523,9.8e-05,53.2153,307.6592,102.1377,257.9725,-0.00012915,-2.342e-05,0.0,0 STARLINK-3830,1 52363U 22045AJ  23098.00296802 -.00002342  00000-0 -12915-3 0  9995,2 52363  53.2153 307.6592 0000980 102.1377 257.9725 15.08835523 54758,6917.894,95.438,540.437,539.081,0.0
52363.0,STARLINK-3830,PAYLOAD,2023-04-08 23:55:03,15.0884444,8.59e-05,53.2159,303.1985,102.5602,257.5486,-0.00013739,-2.474e-05,0.0,0 STARLINK-3830,1 52363U 22045AJ  23098.99657128 -.00002474  00000-0 -13739-3 0  9996,2 52363  53.2159 303.1985 0000859 102.5602 257.5486 15.08844440 54906,6917.867,95.437,540.326,539.138,0.0
52363.0,STARLINK-3830,PAYLOAD,2023-04-09 17:24:19,15.08826189,9.06e-05,53.2149,299.9273,110.9762,249.1327,0.000115,1.542e-05,0.0,0 STARLINK-3830,1 52363U 22045AJ  23099.72522145  .00001542  00000-0  11500-3 0  9995,2 52363  53.2149 299.9273 0000906 110.9762 249.1327 15.08826189 55014,6917.923,95.438,540.414,539.161,0.0
52363.0,STARLINK-3830,PAYLOAD,2023-04-09 18:59:42,15.08827087,9.09e-05,53.2149,299.63,110.6875,249.4214,0.00012129,1.642e-05,0.0,0 STARLINK-3830,1 52363U 22045AJ  23099.79146146  .00001642  00000-0  12129-3 0  9994,2 52363  53.2149 299.6300 0000909 110.6875 249.4214 15.08827087 55024,6917.92,95.438,540.414,539.156,0.0
